OBJECT_NAME,OBJECT_ID,EPOCH,MEAN_MOTION,ECCENTRICITY,INCLINATION,RA_OF_ASC_NODE,ARG_OF_PERICENTER,MEAN_ANOMALY,EPHEMERIS_TYPE,CLASSIFICATION_TYPE,NORAD_CAT_ID,ELEMENT_SET_NO,REV_AT_EPOCH,BSTAR,MEAN_MOTION_DOT,MEAN_MOTION_DDOT
ONEWEB-0696,2023-068P,2026-07-15T03:52:56.115840,13.15549929,.0002077,87.8986,253.6478,113.0184,247.1165,0,U,56723,999,15304,.32457E-3,.135E-5,0
ONEWEB-0703,2023-068Q,2026-07-15T04:06:37.761696,13.15548199,.0001761,87.8988,253.6271,124.7288,235.4009,0,U,56724,999,15293,.10653E-3,.53E-6,0
ONEWEB-0721,2023-068R,2026-07-15T01:23:40.215840,13.22471050,.0001762,86.6743,76.6187,80.0889,280.0443,0,U,56725,999,16162,.6265E-4,.41E-6,0
IRIDIUM 181,2023-068S,2026-07-15T02:46:21.283104,14.43312270,.0002407,86.4474,45.1112,83.8027,276.3449,0,U,56726,999,16646,.45628E-4,.174E-5,0
IRIDIUM 177,2023-068T,2026-07-14T20:08:06.997632,14.80021590,.0002347,86.1988,315.6632,95.8884,264.2605,0,U,56727,999,17045,.67857E-4,.54E-5,0
IRIDIUM 174,2023-068U,2026-07-14T22:50:19.940352,14.72258071,.0001989,86.6119,342.0827,87.4290,272.7155,0,U,56728,999,17010,.5919E-4,.398E-5,0
IRIDIUM 178,2023-068V,2026-07-14T21:29:37.838976,14.80026130,.0002314,86.6535,13.7786,90.8281,269.3206,0,U,56729,999,17046,.20605E-4,.182E-5,0
IRIDIUM 179,2023-068W,2026-07-15T00:36:38.348640,14.80033495,.0002321,86.6767,22.7863,93.3552,266.7935,0,U,56730,999,17048,.14651E-4,.137E-5,0
2023-069A,2023-069A,2026-07-14T22:15:24.155424,15.41933269,.0005041,40.9961,12.4561,136.0424,224.0802,0,U,56731,999,17733,.12411E-3,.5158E-4,0
2023-069B,2023-069B,2026-07-15T05:54:40.788288,15.10783705,.0009721,41.0086,269.7019,78.4843,281.7061,0,U,56732,999,17447,.12368E-3,.1908E-4,0
NEXTSAT-2,2023-072A,2026-07-15T04:45:39.004704,15.28136805,.0004099,97.5234,33.4472,282.0770,78.0010,0,U,56743,999,17387,.13445E-3,.3611E-4,0
SNIPE 4,2023-072B,2026-07-15T04:00:17.798688,15.43392491,.000479,97.5223,43.0780,205.4708,154.6304,0,U,56744,999,17442,.27802E-3,.12333E-3,0
SNIPE 2,2023-072C,2026-07-15T04:33:24.801696,15.48226354,.0003231,97.5212,46.3466,234.1035,125.9915,0,U,56745,999,17457,.35071E-3,.18397E-3,0
2023-072D,2023-072D,2026-07-15T05:37:23.902752,15.75828872,.0003411,97.4854,54.6363,166.3266,193.8092,0,U,56746,999,17527,.60849E-3,.9424E-3,0
2023-072E,2023-072E,2026-07-15T04:11:25.153152,15.49329906,.0002762,97.5016,46.4953,208.8985,151.2113,0,U,56747,999,17471,.30075E-3,.16379E-3,0
2023-072F,2023-072F,2026-07-15T04:40:51.073248,15.31751126,.0004143,97.5092,34.5491,275.5334,84.5434,0,U,56748,999,17406,.1692E-3,.5107E-4,0
2023-072G,2023-072G,2026-07-15T04:27:57.078720,15.52129576,.0002417,97.4868,45.1800,204.2591,155.8548,0,U,56749,999,17480,.32983E-3,.19857E-3,0
KONDOR-FKA NO. 1,2023-074A,2026-07-15T04:53:19.527936,15.19711191,.00017,97.4405,30.3653,88.1821,271.9608,0,U,56756,999,17394,.10667E-3,.221E-4,0
ARABSAT-7B (BADR-8),2023-075A,2026-07-14T11:49:49.380096,1.00271079,.0003416,0.0743,30.7036,358.3138,106.7877,0,U,56757,999,1139,0,.137E-5,0
NVS-01 (IRNSS-1J),2023-076A,2026-07-15T00:17:52.814112,1.00264755,.0003554,2.1020,243.0876,7.1567,176.5156,0,U,56759,999,1139,0,-.345E-5,0
STARLINK-6197,2023-078A,2026-07-14T21:19:20.619840,15.21996277,.0005681,69.9886,18.2274,286.5378,73.5169,0,U,56767,999,17187,.78603E-3,.17924E-3,0
STARLINK-6198,2023-078B,2026-07-14T20:15:26.543808,14.98332003,.00026687,70.0000,3.7187,268.5278,91.5575,0,U,56768,999,17222,.4589279E-4,.455E-5,0
STARLINK-6342,2023-078D,2026-07-14T23:28:37.833024,14.98329534,.0002982,69.9997,43.5205,268.9098,91.1720,0,U,56770,999,17125,.21921E-4,.169E-5,0
STARLINK-6275,2023-078F,2026-07-14T23:22:23.282112,14.98327339,.0002963,69.9997,43.5049,267.3952,92.6868,0,U,56772,999,17125,.42556E-4,.415E-5,0
STARLINK-6296,2023-078G,2026-07-14T19:27:05.020992,14.98317173,.0002948,70.0008,344.1086,274.9817,85.1006,0,U,56773,999,17270,-.10404702E-3,-.1334E-4,0
STARLINK-6190,2023-078H,2026-07-14T23:52:26.077728,14.98332425,.0002809,69.9992,43.5733,263.9186,96.1653,0,U,56774,999,17125,-.77664E-5,-.186E-5,0
STARLINK-6292,2023-078J,2026-07-14T19:21:05.165856,14.98328111,.00030393,69.9999,344.0944,267.9660,92.1151,0,U,56775,999,17270,.4746175E-4,.473E-5,0
STARLINK-6274,2023-078K,2026-07-14T21:33:34.943040,14.98333869,.0003061,70.0005,3.9010,269.1910,90.8898,0,U,56776,999,17222,.32811E-4,.299E-5,0
STARLINK-5582,2023-078L,2026-07-14T22:09:58.441248,14.98327632,.0002851,70.0000,23.8561,268.4134,91.6698,0,U,56777,999,17173,.3192E-4,.288E-5,0
STARLINK-6304,2023-078M,2026-07-14T21:27:34.367328,14.98333838,.0003099,70.0005,3.8859,260.6917,99.3891,0,U,56778,999,17222,-.51536E-4,-.708E-5,0
STARLINK-6231,2023-078N,2026-07-14T20:51:30.117312,14.98334733,.0002827,70.0004,3.7977,266.4232,93.6604,0,U,56779,999,17221,.10836E-3,.12E-4,0
