ONEWEB-0696             
1 56723U 23068P   26196.16176060  .00000135  00000+0  32457-3 0  9995
2 56723  87.8986 253.6478 0002077 113.0184 247.1165 13.15549929153047
ONEWEB-0703             
1 56724U 23068Q   26196.17127039  .00000053  00000+0  10653-3 0  9992
2 56724  87.8988 253.6271 0001761 124.7288 235.4009 13.15548199152936
ONEWEB-0721             
1 56725U 23068R   26196.05810435  .00000041  00000+0  62650-4 0  9991
2 56725  86.6743  76.6187 0001762  80.0889 280.0443 13.22471050161627
IRIDIUM 181             
1 56726U 23068S   26196.11552411  .00000174  00000+0  45628-4 0  9999
2 56726  86.4474  45.1112 0002407  83.8027 276.3449 14.43312270166461
IRIDIUM 177             
1 56727U 23068T   26195.83896988  .00000540  00000+0  67857-4 0  9993
2 56727  86.1988 315.6632 0002347  95.8884 264.2605 14.80021590170455
IRIDIUM 174             
1 56728U 23068U   26195.95161968  .00000398  00000+0  59190-4 0  9992
2 56728  86.6119 342.0827 0001989  87.4290 272.7155 14.72258071170109
IRIDIUM 178             
1 56729U 23068V   26195.89557684  .00000182  00000+0  20605-4 0  9990
2 56729  86.6535  13.7786 0002314  90.8281 269.3206 14.80026130170465
IRIDIUM 179             
1 56730U 23068W   26196.02544385  .00000137  00000+0  14651-4 0  9996
2 56730  86.6767  22.7863 0002321  93.3552 266.7935 14.80033495170481
2023-069A               
1 56731U 23069A   26195.92736291  .00005158  00000+0  12411-3 0  9994
2 56731  40.9961  12.4561 0005041 136.0424 224.0802 15.41933269177334
2023-069B               
1 56732U 23069B   26196.24630542  .00001908  00000+0  12368-3 0  9993
2 56732  41.0086 269.7019 0009721  78.4843 281.7061 15.10783705174476
NEXTSAT-2               
1 56743U 23072A   26196.19836811  .00003611  00000+0  13445-3 0  9990
2 56743  97.5234  33.4472 0004099 282.0770  78.0010 15.28136805173879
SNIPE 4                 
1 56744U 23072B   26196.16687267  .00012333  00000+0  27802-3 0  9990
2 56744  97.5223  43.0780 0004790 205.4708 154.6304 15.43392491174426
SNIPE 2                 
1 56745U 23072C   26196.18987039  .00018397  00000+0  35071-3 0  9996
2 56745  97.5212  46.3466 0003231 234.1035 125.9915 15.48226354174577
2023-072D               
1 56746U 23072D   26196.23430443  .00094240  00000+0  60849-3 0  9997
2 56746  97.4854  54.6363 0003411 166.3266 193.8092 15.75828872175270
2023-072E               
1 56747U 23072E   26196.17459668  .00016379  00000+0  30075-3 0  9996
2 56747  97.5016  46.4953 0002762 208.8985 151.2113 15.49329906174719
2023-072F               
1 56748U 23072F   26196.19503557  .00005107  00000+0  16920-3 0  9996
2 56748  97.5092  34.5491 0004143 275.5334  84.5434 15.31751126174069
2023-072G               
1 56749U 23072G   26196.18607730  .00019857  00000+0  32983-3 0  9998
2 56749  97.4868  45.1800 0002417 204.2591 155.8548 15.52129576174809
KONDOR-FKA NO. 1        
1 56756U 23074A   26196.20369824  .00002210  00000+0  10667-3 0  9990
2 56756  97.4405  30.3653 0001700  88.1821 271.9608 15.19711191173949
ARABSAT-7B (BADR-8)     
1 56757U 23075A   26195.49293264  .00000137  00000+0  00000+0 0  9998
2 56757   0.0743  30.7036 0003416 358.3138 106.7877  1.00271079 11397
NVS-01 (IRNSS-1J)       
1 56759U 23076A   26196.01241683 -.00000345  00000+0  00000+0 0  9990
2 56759   2.1020 243.0876 0003554   7.1567 176.5156  1.00264755 11397
STARLINK-6197           
1 56767U 23078A   26195.88843310  .00017924  00000+0  78603-3 0  9998
2 56767  69.9886  18.2274 0005681 286.5378  73.5169 15.21996277171876
STARLINK-6198           
1 56768U 23078B   26195.84405722  .00000455  00000+0  45893-4 0  9993
2 56768  70.0000   3.7187 0002668 268.5278  91.5575 14.98332003172226
STARLINK-6342           
1 56770U 23078D   26195.97821566  .00000169  00000+0  21921-4 0  9996
2 56770  69.9997  43.5205 0002982 268.9098  91.1720 14.98329534171252
STARLINK-6275           
1 56772U 23078F   26195.97388058  .00000415  00000+0  42556-4 0  9993
2 56772  69.9997  43.5049 0002963 267.3952  92.6868 14.98327339171251
STARLINK-6296           
1 56773U 23078G   26195.81047478 -.00001334  00000+0 -10405-3 0  9995
2 56773  70.0008 344.1086 0002948 274.9817  85.1006 14.98317173172703
STARLINK-6190           
1 56774U 23078H   26195.99474627 -.00000186  00000+0 -77664-5 0  9991
2 56774  69.9992  43.5733 0002809 263.9186  96.1653 14.98332425171251
STARLINK-6292           
1 56775U 23078J   26195.80630979  .00000473  00000+0  47462-4 0  9995
2 56775  69.9999 344.0944 0003039 267.9660  92.1151 14.98328111172706
STARLINK-6274           
1 56776U 23078K   26195.89832110  .00000299  00000+0  32811-4 0  9994
2 56776  70.0005   3.9010 0003061 269.1910  90.8898 14.98333869172226
STARLINK-5582           
1 56777U 23078L   26195.92359307  .00000288  00000+0  31920-4 0  9999
2 56777  70.0000  23.8561 0002851 268.4134  91.6698 14.98327632171733
STARLINK-6304           
1 56778U 23078M   26195.89414777 -.00000708  00000+0 -51536-4 0  9993
2 56778  70.0005   3.8859 0003099 260.6917  99.3891 14.98333838172225
STARLINK-6231           
1 56779U 23078N   26195.86909858  .00001200  00000+0  10836-3 0  9993
2 56779  70.0004   3.7977 0002827 266.4232  93.6604 14.98334733172210
